[{"OBJECT_NAME":"GLOBALSTAR M087","OBJECT_ID":"2022-064A","EPOCH":"2026-03-09T22:40:46.434432","MEAN_MOTION":12.62266918,"ECCENTRICITY":7.4e-5,"INCLINATION":52.0027,"RA_OF_ASC_NODE":4.5912,"ARG_OF_PERICENTER":85.9375,"MEAN_ANOMALY":274.1576,"EPHEMERIS_TYPE":0,"CLASSIFICATION_TYPE":"U","NORAD_CAT_ID":52888,"ELEMENT_SET_NO":999,"REV_AT_EPOCH":17860,"BSTAR":7.7608991e-5,"MEAN_MOTION_DOT":-9.0e-7,"MEAN_MOTION_DDOT":0},{"OBJECT_NAME":"THORAD DELTA 1 DEB","OBJECT_ID":"1974-089X","EPOCH":"2026-03-09T22:55:35.963904","MEAN_MOTION":12.47527884,"ECCENTRICITY":0.01331387,"INCLINATION":102.1411,"RA_OF_ASC_NODE":73.6644,"ARG_OF_PERICENTER":13.2801,"MEAN_ANOMALY":44.0348,"EPHEMERIS_TYPE":0,"CLASSIFICATION_TYPE":"U","NORAD_CAT_ID":8157,"ELEMENT_SET_NO":999,"REV_AT_EPOCH":33547,"BSTAR":0.00038285268,"MEAN_MOTION_DOT":1.2e-7,"MEAN_MOTION_DDOT":0}]
